ONEWEB-0639             
1 55803U 23029H   26073.94328035  .00000052  00000+0  97079-4 0  9991
2 55803  87.9224 323.7581 0002445 101.0721 259.0687 13.19725310146472
ONEWEB-0640             
1 55804U 23029J   26073.94041252  .00000221  00000+0  56131-3 0  9996
2 55804  87.8970 308.5591 0001342 109.6308 250.4967 13.14502952147031
ONEWEB-0641             
1 55805U 23029K   26073.93853375  .00000079  00000+0  16462-3 0  9997
2 55805  87.9227 323.7461 0001849  83.8639 276.2704 13.19724765146481
ONEWEB-0642             
1 55806U 23029L   26073.93379685 -.00000055  00000+0 -16992-3 0  9999
2 55806  87.9220 323.7618 0002433  92.9630 267.1781 13.19724004146470
ONEWEB-0643             
1 55807U 23029M   26073.91028350 -.00000196  00000+0 -56240-3 0  9994
2 55807  87.8973 308.5519 0002329  87.1479 272.9917 13.14502888147001
ONEWEB-0644             
1 55808U 23029N   26073.92906330 -.00000030  00000+0 -10692-3 0  9997
2 55808  87.9213 323.7685 0002032  87.4235 272.7131 13.19724987146474
ONEWEB-0645             
1 55809U 23029P   26073.95116961  .00000109  00000+0  23915-3 0  9991
2 55809  87.9222 323.7566 0001810  97.0021 263.1318 13.19725250146471
ONEWEB-0646             
1 55810U 23029Q   26073.96853599  .00000093  00000+0  19919-3 0  9990
2 55810  87.9223 323.7535 0001986  84.7479 275.3880 13.19724047146465
ONEWEB-0648             
1 55811U 23029R   26073.87857173  .00000144  00000+0  35509-3 0  9993
2 55811  87.8978 308.5238 0002174 107.0551 253.0817 13.14502240147001
ONEWEB-0649             
1 55812U 23029S   26073.91799294 -.00000027  00000+0 -98587-4 0  9996
2 55812  87.9222 323.7609 0001789  90.1899 269.9439 13.19724802146497
ONEWEB-0650             
1 55813U 23029T   26073.68580259  .00000086  00000+0  18197-3 0  9991
2 55813  87.9220 323.8100 0002109  90.6027 269.5348 13.19725104146433
ONEWEB-0652             
1 55814U 23029U   26073.93565788  .00000172  00000+0  42917-3 0  9993
2 55814  87.8968 308.5271 0001556  75.0659 285.0643 13.14503149146983
ONEWEB-0653             
1 55815U 23029V   26073.91979601 -.00000057  00000+0 -18712-3 0  9995
2 55815  87.8980 308.5214 0001472  82.5070 277.6227 13.14503065147019
ONEWEB-0654             
1 55816U 23029W   26073.91503606 -.00000203  00000+0 -58149-3 0  9995
2 55816  87.8973 308.5213 0001413  71.7730 288.3554 13.14502729147039
ONEWEB-0656             
1 55817U 23029X   26073.65961291  .00000036  00000+0  55919-4 0  9990
2 55817  87.9164 293.3034 0001349  73.2650 286.8632 13.20770795148679
ONEWEB-0657             
1 55818U 23029Y   26073.68107753 -.00000025  00000+0 -93979-4 0  9997
2 55818  87.9217 323.8096 0002055  61.3221 298.8118 13.19725085146448
