[{"OBJECT_NAME":"ONEWEB-0639","OBJECT_ID":"2023-029H","EPOCH":"2026-03-14T22:38:19.422240","MEAN_MOTION":13.1972531,"ECCENTRICITY":0.00024451,"INCLINATION":87.9224,"RA_OF_ASC_NODE":323.7581,"ARG_OF_PERICENTER":101.0721,"MEAN_ANOMALY":259.0687,"EPHEMERIS_TYPE":0,"CLASSIFICATION_TYPE":"U","NORAD_CAT_ID":55803,"ELEMENT_SET_NO":999,"REV_AT_EPOCH":14647,"BSTAR":9.7078737e-5,"MEAN_MOTION_DOT":5.2e-7,"MEAN_MOTION_DDOT":0},{"OBJECT_NAME":"ONEWEB-0640","OBJECT_ID":"2023-029J","EPOCH":"2026-03-14T22:34:11.641728","MEAN_MOTION":13.14502952,"ECCENTRICITY":0.00013424,"INCLINATION":87.897,"RA_OF_ASC_NODE":308.5591,"ARG_OF_PERICENTER":109.6308,"MEAN_ANOMALY":250.4967,"EPHEMERIS_TYPE":0,"CLASSIFICATION_TYPE":"U","NORAD_CAT_ID":55804,"ELEMENT_SET_NO":999,"REV_AT_EPOCH":14703,"BSTAR":0.00056131478,"MEAN_MOTION_DOT":2.21e-6,"MEAN_MOTION_DDOT":0},{"OBJECT_NAME":"ONEWEB-0641","OBJECT_ID":"2023-029K","EPOCH":"2026-03-14T22:31:29.316000","MEAN_MOTION":13.19724765,"ECCENTRICITY":0.00018498,"INCLINATION":87.9227,"RA_OF_ASC_NODE":323.7461,"ARG_OF_PERICENTER":83.8639,"MEAN_ANOMALY":276.2704,"EPHEMERIS_TYPE":0,"CLASSIFICATION_TYPE":"U","NORAD_CAT_ID":55805,"ELEMENT_SET_NO":999,"REV_AT_EPOCH":14648,"BSTAR":0.00016461621,"MEAN_MOTION_DOT":7.9e-7,"MEAN_MOTION_DDOT":0},{"OBJECT_NAME":"ONEWEB-0642","OBJECT_ID":"2023-029L","EPOCH":"2026-03-14T22:24:40.047840","MEAN_MOTION":13.19724004,"ECCENTRICITY":0.00024336,"INCLINATION":87.922,"RA_OF_ASC_NODE":323.7618,"ARG_OF_PERICENTER":92.963,"MEAN_ANOMALY":267.1781,"EPHEMERIS_TYPE":0,"CLASSIFICATION_TYPE":"U","NORAD_CAT_ID":55806,"ELEMENT_SET_NO":999,"REV_AT_EPOCH":14647,"BSTAR":-0.00016991938,"MEAN_MOTION_DOT":-5.5e-7,"MEAN_MOTION_DDOT":0},{"OBJECT_NAME":"ONEWEB-0643","OBJECT_ID":"2023-029M","EPOCH":"2026-03-14T21:50:48.494400","MEAN_MOTION":13.14502888,"ECCENTRICITY":0.00023294,"INCLINATION":87.8973,"RA_OF_ASC_NODE":308.5519,"ARG_OF_PERICENTER":87.1479,"MEAN_ANOMALY":272.9917,"EPHEMERIS_TYPE":0,"CLASSIFICATION_TYPE":"U","NORAD_CAT_ID":55807,"ELEMENT_SET_NO":999,"REV_AT_EPOCH":14700,"BSTAR":-0.00056240122,"MEAN_MOTION_DOT":-1.96e-6,"MEAN_MOTION_DDOT":0},{"OBJECT_NAME":"ONEWEB-0644","OBJECT_ID":"2023-029N","EPOCH":"2026-03-14T22:17:51.069120","MEAN_MOTION":13.19724987,"ECCENTRICITY":0.00020327,"INCLINATION":87.9213,"RA_OF_ASC_NODE":323.7685,"ARG_OF_PERICENTER":87.4235,"MEAN_ANOMALY":272.7131,"EPHEMERIS_TYPE":0,"CLASSIFICATION_TYPE":"U","NORAD_CAT_ID":55808,"ELEMENT_SET_NO":999,"REV_AT_EPOCH":14647,"BSTAR":-0.00010691846,"MEAN_MOTION_DOT":-3.0e-7,"MEAN_MOTION_DDOT":0},{"OBJECT_NAME":"ONEWEB-0645","OBJECT_ID":"2023-029P","EPOCH":"2026-03-14T22:49:41.054304","MEAN_MOTION":13.1972525,"ECCENTRICITY":0.00018109,"INCLINATION":87.9222,"RA_OF_ASC_NODE":323.7566,"ARG_OF_PERICENTER":97.0021,"MEAN_ANOMALY":263.1318,"EPHEMERIS_TYPE":0,"CLASSIFICATION_TYPE":"U","NORAD_CAT_ID":55809,"ELEMENT_SET_NO":999,"REV_AT_EPOCH":14647,"BSTAR":0.00023914566,"MEAN_MOTION_DOT":1.09e-6,"MEAN_MOTION_DDOT":0},{"OBJECT_NAME":"ONEWEB-0646","OBJECT_ID":"2023-029Q","EPOCH":"2026-03-14T23:14:41.509536","MEAN_MOTION":13.19724047,"ECCENTRICITY":0.00019863,"INCLINATION":87.9223,"RA_OF_ASC_NODE":323.7535,"ARG_OF_PERICENTER":84.7479,"MEAN_ANOMALY":275.388,"EPHEMERIS_TYPE":0,"CLASSIFICATION_TYPE":"U","NORAD_CAT_ID":55810,"ELEMENT_SET_NO":999,"REV_AT_EPOCH":14646,"BSTAR":0.0001991855,"MEAN_MOTION_DOT":9.3e-7,"MEAN_MOTION_DDOT":0},{"OBJECT_NAME":"ONEWEB-0648","OBJECT_ID":"2023-029R","EPOCH":"2026-03-14T21:05:08.597472","MEAN_MOTION":13.1450224,"ECCENTRICITY":0.00021742,"INCLINATION":87.8978,"RA_OF_ASC_NODE":308.5238,"ARG_OF_PERICENTER":107.0551,"MEAN_ANOMALY":253.0817,"EPHEMERIS_TYPE":0,"CLASSIFICATION_TYPE":"U","NORAD_CAT_ID":55811,"ELEMENT_SET_NO":999,"REV_AT_EPOCH":14700,"BSTAR":0.00035509453,"MEAN_MOTION_DOT":1.44e-6,"MEAN_MOTION_DDOT":0},{"OBJECT_NAME":"ONEWEB-0649","OBJECT_ID":"2023-029S","EPOCH":"2026-03-14T22:01:54.590016","MEAN_MOTION":13.19724802,"ECCENTRICITY":0.00017894,"INCLINATION":87.9222,"RA_OF_ASC_NODE":323.7609,"ARG_OF_PERICENTER":90.1899,"MEAN_ANOMALY":269.9439,"EPHEMERIS_TYPE":0,"CLASSIFICATION_TYPE":"U","NORAD_CAT_ID":55812,"ELEMENT_SET_NO":999,"REV_AT_EPOCH":14649,"BSTAR":-9.8586641e-5,"MEAN_MOTION_DOT":-2.7e-7,"MEAN_MOTION_DDOT":0},{"OBJECT_NAME":"ONEWEB-0650","OBJECT_ID":"2023-029T","EPOCH":"2026-03-14T16:27:33.343776","MEAN_MOTION":13.19725104,"ECCENTRICITY":0.00021095,"INCLINATION":87.922,"RA_OF_ASC_NODE":323.81,"ARG_OF_PERICENTER":90.6027,"MEAN_ANOMALY":269.5348,"EPHEMERIS_TYPE":0,"CLASSIFICATION_TYPE":"U","NORAD_CAT_ID":55813,"ELEMENT_SET_NO":999,"REV_AT_EPOCH":14643,"BSTAR":0.00018197034,"MEAN_MOTION_DOT":8.6e-7,"MEAN_MOTION_DDOT":0},{"OBJECT_NAME":"ONEWEB-0652","OBJECT_ID":"2023-029U","EPOCH":"2026-03-14T22:27:20.840832","MEAN_MOTION":13.14503149,"ECCENTRICITY":0.00015565,"INCLINATION":87.8968,"RA_OF_ASC_NODE":308.5271,"ARG_OF_PERICENTER":75.0659,"MEAN_ANOMALY":285.0643,"EPHEMERIS_TYPE":0,"CLASSIFICATION_TYPE":"U","NORAD_CAT_ID":55814,"ELEMENT_SET_NO":999,"REV_AT_EPOCH":14698,"BSTAR":0.00042916738,"MEAN_MOTION_DOT":1.72e-6,"MEAN_MOTION_DDOT":0},{"OBJECT_NAME":"ONEWEB-0653","OBJECT_ID":"2023-029V","EPOCH":"2026-03-14T22:04:30.375264","MEAN_MOTION":13.14503065,"ECCENTRICITY":0.00014729,"INCLINATION":87.898,"RA_OF_ASC_NODE":308.5214,"ARG_OF_PERICENTER":82.507,"MEAN_ANOMALY":277.6227,"EPHEMERIS_TYPE":0,"CLASSIFICATION_TYPE":"U","NORAD_CAT_ID":55815,"ELEMENT_SET_NO":999,"REV_AT_EPOCH":14701,"BSTAR":-0.00018711768,"MEAN_MOTION_DOT":-5.7e-7,"MEAN_MOTION_DDOT":0},{"OBJECT_NAME":"ONEWEB-0654","OBJECT_ID":"2023-029W","EPOCH":"2026-03-14T21:57:39.115584","MEAN_MOTION":13.14502729,"ECCENTRICITY":0.00014131,"INCLINATION":87.8973,"RA_OF_ASC_NODE":308.5213,"ARG_OF_PERICENTER":71.773,"MEAN_ANOMALY":288.3554,"EPHEMERIS_TYPE":0,"CLASSIFICATION_TYPE":"U","NORAD_CAT_ID":55816,"ELEMENT_SET_NO":999,"REV_AT_EPOCH":14703,"BSTAR":-0.00058148628,"MEAN_MOTION_DOT":-2.03e-6,"MEAN_MOTION_DDOT":0},{"OBJECT_NAME":"ONEWEB-0656","OBJECT_ID":"2023-029X","EPOCH":"2026-03-14T15:49:50.555424","MEAN_MOTION":13.20770795,"ECCENTRICITY":0.00013495,"INCLINATION":87.9164,"RA_OF_ASC_NODE":293.3034,"ARG_OF_PERICENTER":73.265,"MEAN_ANOMALY":286.8632,"EPHEMERIS_TYPE":0,"CLASSIFICATION_TYPE":"U","NORAD_CAT_ID":55817,"ELEMENT_SET_NO":999,"REV_AT_EPOCH":14867,"BSTAR":5.5918566e-5,"MEAN_MOTION_DOT":3.6e-7,"MEAN_MOTION_DDOT":0},{"OBJECT_NAME":"ONEWEB-0657","OBJECT_ID":"2023-029Y","EPOCH":"2026-03-14T16:20:45.098592","MEAN_MOTION":13.19725085,"ECCENTRICITY":0.00020557,"INCLINATION":87.9217,"RA_OF_ASC_NODE":323.8096,"ARG_OF_PERICENTER":61.3221,"MEAN_ANOMALY":298.8118,"EPHEMERIS_TYPE":0,"CLASSIFICATION_TYPE":"U","NORAD_CAT_ID":55818,"ELEMENT_SET_NO":999,"REV_AT_EPOCH":14644,"BSTAR":-9.3978904e-5,"MEAN_MOTION_DOT":-2.5e-7,"MEAN_MOTION_DDOT":0}]
